  "U",
  1975,
  52,
  "LS",
  2024,
  337.92220267,
  7.04e-6,
  0.0,
  "164.56",
  0,
  999,
  1,
  42633,
  99.7114,
  209.188,
  0.0125657,
  272.1907,
  86.483,
  13.25092098,
  53308,
  0,
  {
    tle_line1:
      "1 42633U 75052LS  24337.92220267  .00000704  00000-0  16456-2 0  9991",
    tle_line2:
      "2 42633  99.7114 209.1880 0125657 272.1907  86.4830 13.25092098533080",
  },
  None,
  datetime.datetime(2024, 12, 3, 18, 51, 13, 452992),
  "{}",
  "1260.123",
  "1070.545",
  "99.7114"),
  (40366,
  42634,
  "U",
  1975,
  52,
  "LT",
  2024,
  333.37947696,
  2.48e-6,
  0.0,
  "57.69",
  0,
  999,
  8,
  42634,
  99.8248,
  212.4261,
  0.0060898,
  202.6148,
  157.2291,
  13.34208909,
  53672,
  2,
  {
    tle_line1:
      "1 42634U 75052LT  24333.37947696  .00000248  00000-0  57690-3 0  9998",
    tle_line2:
      "2 42634  99.8248 212.4261 0060898 202.6148 157.2291 13.34208909536722",
  },
  None,
  datetime.datetime(2024, 12, 3, 18, 51, 13, 453998),
  "{}",
  "1176.660",
  "1085.203",
  "99.8248"),
  (40367,
  42635,
  "U",
  1975,
  52,
  "LU",
  2024,
  337.56196937,
  3.9e-6,
  0.0,
  "61.256",
  0,
  999,
  9,
  42635,
  99.7836,
  245.021,
  0.0044236,
  248.034,
  236.0112,
  13.56550427,
  54585,
  8,
  {
    tle_line1:
      "1 42635U 75052LU  24337.56196937  .00000390  00000-0  61256-3 0  9999",
    tle_line2:
      "2 42635  99.7836 245.0210 0044236 248.0340 236.0112 13.56550427545858",
  },
  None,
  datetime.datetime(2024, 12, 3, 18, 51, 13, 455898),
  "{}",
  "1081.109",
  "1015.406",
  "99.7836"),
  (40368,
  42636,
  "U",
  1975,
  52,
  "LV",
  2024,
  337.55891279,
  5.67e-6,
  0.0,
  "140.04",
  0,
  999,
  4,
  42636,
  99.7174,
  195.4665,
  0.0131388,
  53.2871,
  336.3265,
  13.2186538,
  4748,
  4,
  {
    tle_line1:
      "1 42636U 75052LV  24337.55891279  .00000567  00000-0  14004-2 0  9994",
    tle_line2:
      "2 42636  99.7174 195.4665 0131388  53.2871 336.3265 13.21865380 47484",
  },
  None,
  datetime.datetime(2024, 12, 3, 18, 51, 13, 458139),
  "{}",
  "1276.879",
  "1078.332",
  "99.7174"),
  (40369,
  42637,
  "U",
  1975,
  52,
  "LW",
  2024,
  314.01004469,
  2.84e-6,
  0.0,
  "79.265",
  0,
  999,
  5,
  42637,
  99.9047,
  227.246,
  0.0139897,
  312.5481,
  46.3893,
  13.18045409,
  52812,
  2,
  {
    tle_line1:
      "1 42637U 75052LW  24314.01004469  .00000284  00000-0  79265-3 0  9995",
    tle_line2:
      "2 42637  99.9047 227.2460 0139897 312.5481  46.3893 13.18045409528122",
  },
  None,
  datetime.datetime(2024, 12, 3, 18, 51, 13, 460081),
  "{}",
  "1298.104",
  "1086.290",
  "99.9047"),
  (40370,
  42639,
  "U",
  1975,
  52,
  "LY",
  2024,
  337.8154639,
  1.24e-6,
  0.0,
  "34.221",
  0,
  999,
  0,
  42639,
  99.7072,
  179.9406,
  0.0070679,
  298.5267,
  74.1105,
  13.31577075,
  53609,
  4,
  {
    tle_line1:
      "1 42639U 75052LY  24337.81546390  .00000124  00000-0  34221-3 0  9990",
    tle_line2:
      "2 42639  99.7072 179.9406 0070679 298.5267  74.1105 13.31577075536094",
  },
  None,
  datetime.datetime(2024, 12, 3, 18, 51, 13, 461373),
  "{}",
  "1193.966",
  "1087.679",
  "99.7072"),
  (40371,
  42640,
  "U",
  1975,
  52,
  "LZ",
  2024,
  334.43831191,
  1.11e-5,
  0.0,
  "171.68",
  0,
  999,
  9,
  42640,
  99.7706,
  146.7159,
  0.0216988,
  15.0434,
  13.6253,
  13.44478281,
  54013,
  5,
  {
    tle_line1:
      "1 42640U 75052LZ  24334.43831191  .00001110  00000-0  17168-2 0  9999",
    tle_line2:
      "2 42640  99.7706 146.7159 0216988  15.0434  13.6253 13.44478281540135",
  },
  None,
  datetime.datetime(2024, 12, 3, 18, 51, 13, 463133),
  "{}",
  "1254.753",
  "930.539",
  "99.7706"),
  (40372,
  42641,
  "U",
  1975,
  52,
  "MA",
  2024,
  338.52341328,
  3.87e-6,
  0.0,
  "83.867",
  0,
  999,
  7,
  42641,
  99.8129,
  76.5438,
  0.0060228,
  23.2263,
  348.1742,
  13.3539592,
  5706,
  3,
  {
    tle_line1:
      "1 42641U 75052MA  24338.52341328  .00000387  00000-0  83867-3 0  9997",
    tle_line2:
      "2 42641  99.8129  76.5438 0060228  23.2263 348.1742 13.35395920 57063",
  },
  None,
  datetime.datetime(2024, 12, 3, 18, 51, 13, 464827),
  "{}",
  "1171.680",
  "1081.282",
  "99.8129"),
  (40373,
  42642,
  "U",
  1975,
  52,
  "MB",
  2024,
  335.58646372,
  2.47e-6,
  0.0,
  "60.003",
  0,
  999,
  0,
  42642,
  99.8746,
  84.486,
  0.0075597,
  278.6222,
  80.6342,
  13.31284898,
  4552,
  1,
  {
    tle_line1:
      "1 42642U 75052MB  24335.58646372  .00000247  00000-0  60003-3 0  9990",
    tle_line2:
      "2 42642  99.8746  84.4860 0075597 278.6222  80.6342 13.31284898 45521",
  },
  None,
  datetime.datetime(2024, 12, 3, 18, 51, 13, 466206),
  "{}",
  "1198.772",
  "1085.073",
  "99.8746"),
  (40374,
  42643,
  "U",
  1975,
  52,
  "MC",
  2024,
  337.4322659,
  1.7e-6,
  0.0,
  "65.87",
  0,
  999,
  5,
  42643,
  99.7101,
  232.5917,
  0.0295132,
  130.071,
  232.6671,
  12.88612024,
  95872,
  3,
  {
    tle_line1:
      "1 42643U 75052MC  24337.43226590  .00000170  00000-0  65870-3 0  9995",
    tle_line2:
      "2 42643  99.7101 232.5917 0295132 130.0710 232.6671 12.88612024958723",
  },
  None,
  datetime.datetime(2024, 12, 3, 18, 51, 13, 467277),
  "{}",
  "1533.853",
  "1080.225",
  "99.7101"),
  (40375,
  42644,
  "U",
  1975,
  52,
  "MD",
  2024,
  332.23594523,
  2.58e-6,
  0.0,
  "71.81",
  0,
  999,
  1,
  42644,
  99.556,
  324.5764,
  0.0158934,
  60.3609,
  301.3232,
  13.17126204,
  18070,
  8,
  {
    tle_line1:
      "1 42644U 75052MD  24332.23594523  .00000258  00000-0  71810-3 0  9991",
    tle_line2:
      "2 42644  99.5560 324.5764 0158934  60.3609 301.3232 13.17126204180708",
  },
  None,
  datetime.datetime(2024, 12, 3, 18, 51, 13, 468392),
  "{}",
  "1316.093",
  "1075.344",
  "99.5560"),
  (40376,
  42645,
  "U",
  1975,
  52,
  "ME",
  2024,
  323.12916851,
  5.6e-7,
  0.0,
  "29.96",
  0,
  999,
  7,
  42645,
  99.702,
  278.335,
  0.0270772,
  48.7454,
  17.0303,
  12.90042632,
  38862,
  5,
  {
    tle_line1:
      "1 42645U 75052ME  24323.12916851  .00000056  00000-0  29960-3 0  9997",
    tle_line2:
      "2 42645  99.7020 278.3350 0270772  48.7454  17.0303 12.90042632388625",
  },
  None,
  datetime.datetime(2024, 12, 3, 18, 51, 13, 469591),
  "{}",
  "1509.296",
  "1093.417",
  "99.7020"),
  (40377,
  42646,
  "U",
  1975,
  52,
  "MF",
  2024,
  337.48477345,
  3.32e-6,
  0.0,
  "72.856",
  0,
  999,
  1,
  42646,
  100.0069,
  254.5166,
  0.0054736,
  121.2158,
  239.4348,
  13.35885742,
  49206,
  4,
  {
    tle_line1:
      "1 42646U 75052MF  24337.48477345  .00000332  00000-0  72856-3 0  9991",
    tle_line2:
      "2 42646 100.0069 254.5166 0054736 121.2158 239.4348 13.35885742492064",
  },
  None,
  datetime.datetime(2024, 12, 3, 18, 51, 13, 471266),
  "{}",
  "1165.714",
  "1083.579",
  "100.0069"),
  (40378,
  42647,
  "U",
  1975,
  52,
  "MG",
  2024,
  332.72732569,
  1.5e-6,
  0.0,
  "38.965",
  0,
  999,
  7,
  42647,
  99.6744,
  143.9182,
  0.0065085,
  225.1586,
  134.4239,
  13.3249322,
  820,
  0,
  {
    tle_line1:
      "1 42647U 75052MG  24332.72732569  .00000150  00000-0  38965-3 0  9997",
    tle_line2:
      "2 42647  99.6744 143.9182 0065085 225.1586 134.4239 13.32493220  8200",
  },
  None,
  datetime.datetime(2024, 12, 3, 18, 51, 13, 473404),
  "{}",
  "1186.290",
  "1088.461",
  "99.6744"),
  (40379,
  42648,
  "U",
  1975,
  52,
  "MH",
  2024,
  337.94410753,
  8.86e-5,
  0.0,
  "1287.0",
  0,
  999,
  6,
  42648,
  100.3236,
  51.5243,
  0.0201829,
  43.5218,
  318.1643,
  13.4738579,
  4721,
  3,
  {
    tle_line1:
      "1 42648U 75052MH  24337.94410753  .00008860  00000-0  12870-1 0  9996",
    tle_line2:
      "2 42648 100.3236  51.5243 0201829  43.5218 318.1643 13.47385790 47213",
  },
  None,
  datetime.datetime(2024, 12, 3, 18, 51, 13, 475868),
  "{}",
  "1232.459",
  "931.329",
  "100.3236"),
  (40380,
  42649,
  "U",
  1975,
  52,
  "MJ",
  2024,
  335.91098599,
  3.28e-6,
  0.0,
  "68.92",
  0,
  999,
  2,
  42649,
  99.8282,
  212.1064,
  0.0035105,
  162.7026,
  197.5306,
  13.39017996,
  94911,
  2,
  {
    tle_line1:
      "1 42649U 75052MJ  24335.91098599  .00000328  00000-0  68920-3 0  9992",
    tle_line2:
      "2 42649  99.8282 212.1064 0035105 162.7026 197.5306 13.39017996949112",
  },
  None,
  datetime.datetime(2024, 12, 3, 18, 51, 13, 477420),
  "{}",
  "1139.239",
  "1086.644",
  "99.8282"),
  (40381,
  42651,
  "U",
  1975,
  52,
  "ML",
  2024,
  333.13044068,
  0.0,
  0.0,
  "0.0",
  0,
  999,
  8,
  42651,
  99.262,
  291.9084,
  0.0153618,
  171.85,
  202.1693,
  13.45036106,
  49521,
  0,
  {
    tle_line1:
      "1 42651U 75052ML  24333.13044068 -.00000562  00000-0 -82741-3 0  9998",
    tle_line2:
      "2 42651  99.2620 291.9084 0153618 171.8500 202.1693 13.45036106495210",
  },
  None,
  datetime.datetime(2024, 12, 3, 18, 51, 13, 478618),
  "{}",
  "1205.313",
  "975.847",
  "99.2620"),
  (40382,
  42652,
  "U",
  1975,
  52,
  "MM",
  2024,
  337.74467601,
  4.61e-6,
  0.0,
  "101.71",
  0,
  999,
  5,
  42652,
  99.7086,
  141.757,
  0.0072925,
  242.581,
  129.2451,
  13.32821924,
  53645,
  4,
  {
    tle_line1:
      "1 42652U 75052MM  24337.74467601  .00000461  00000-0  10171-2 0  9995",
    tle_line2:
      "2 42652  99.7086 141.7570 0072925 242.5810 129.2451 13.32821924536454",
  },
  None,
  datetime.datetime(2024, 12, 3, 18, 51, 13, 479883),
  "{}",
  "1190.938",
  "1081.342",
  "99.7086"),
  (40383,
  42653,
  "U",
  1975,
  52,
  "MN",
  2024,
  337.69934345,
  1.9e-7,
  0.0,
  "12.746",
  0,
  999,
  4,
  42653,
  99.7055,
  141.8922,
  0.0067895,
  260.3829,
  162.5775,
  13.30776712,
  53581,
  1,
  {
    tle_line1:
      "1 42653U 75052MN  24337.69934345  .00000019  00000-0  12746-3 0  9994",
    tle_line2:
      "2 42653  99.7055 141.8922 0067895 260.3829 162.5775 13.30776712535811",
  },
  None,
  datetime.datetime(2024, 12, 3, 18, 51, 13, 481386),
  "{}",
  "1194.907",
  "1092.767",
  "99.7055"),
  (40384,
  42654,
  "U",
  1975,
  52,
  "MP",
  2024,
  314.23722211,
  1.13e-6,
